OBJECT_NAME,OBJECT_ID,EPOCH,MEAN_MOTION,ECCENTRICITY,INCLINATION,RA_OF_ASC_NODE,ARG_OF_PERICENTER,MEAN_ANOMALY,EPHEMERIS_TYPE,CLASSIFICATION_TYPE,NORAD_CAT_ID,ELEMENT_SET_NO,REV_AT_EPOCH,BSTAR,MEAN_MOTION_DOT,MEAN_MOTION_DDOT
STARLINK-37732,2026-119M,2026-06-18T22:00:01.999584,15.65863724,.00013691,97.2847,195.8446,90.3096,228.1270,0,U,69307,999,432,-.28250522E-1,-.2499556E-1,0
STARLINK-37689,2026-119N,2026-06-18T22:00:01.999584,15.49136581,.0000356,97.2849,195.6037,71.2638,40.7381,0,U,69308,999,432,.16112794E-2,.88369E-3,0
STARLINK-37619,2026-119P,2026-06-18T22:00:01.999584,15.62592650,.00011916,97.2849,195.8378,96.7012,205.8389,0,U,69309,999,432,-.10883868E-1,-.885016E-2,0
STARLINK-37794,2026-119Q,2026-06-18T22:00:01.999584,15.53239016,.0001878,97.2849,195.7561,80.9283,28.8625,0,U,69310,999,432,-.12200749E-1,-.702233E-2,0
STARLINK-37795,2026-119R,2026-06-18T22:00:01.999584,15.49138822,.00003732,97.2849,195.6151,71.9374,65.4315,0,U,69311,999,432,.16417593E-2,.90069E-3,0
STARLINK-37790,2026-119S,2026-06-18T22:00:01.999584,15.57281092,.00018577,97.2854,195.8166,89.8533,153.2848,0,U,69312,999,432,-.38034029E-1,-.2421385E-1,0
STARLINK-37676,2026-119T,2026-06-18T22:00:01.999584,15.66331377,.00013488,97.2840,195.8668,69.6791,300.8378,0,U,69313,999,432,-.27970309E-1,-.251903E-1,0
STARLINK-37617,2026-119U,2026-06-18T22:00:01.999584,15.58987530,.00018917,97.2854,195.8180,92.4656,156.8103,0,U,69314,999,432,-.35135728E-1,-.2390549E-1,0
STARLINK-37627,2026-119V,2026-06-18T22:00:01.999584,15.57466399,.00017715,97.2856,195.8277,98.1592,171.6328,0,U,69315,999,432,-.38192285E-1,-.2444883E-1,0
STARLINK-37738,2026-119W,2026-06-18T22:00:01.999584,15.58708425,.00016263,97.2850,195.8157,82.4575,160.2050,0,U,69316,999,432,-.15800771E-1,-.1100783E-1,0
STARLINK-37799,2026-119X,2026-06-18T22:00:01.999584,15.69333457,.0001433,97.2844,195.8764,70.3166,323.8502,0,U,69317,999,427,-.24890443E-1,-.2533352E-1,0
STARLINK-37802,2026-119Y,2026-06-18T22:00:01.999584,15.64292291,.00012476,97.2842,195.8604,76.2639,277.2535,0,U,69318,999,432,-.30198392E-1,-.2507555E-1,0
STARLINK-37803,2026-119Z,2026-06-18T22:00:01.999584,15.52730359,.00014984,97.2856,195.7585,76.0168,29.9445,0,U,69319,999,427,-.14837436E-1,-.837314E-2,0
GUOWANG TEST OBJECT A,2026-120A,2026-06-07T11:06:12.288672,15.38803685,.00095994,54.9967,71.5399,294.3963,65.6063,0,U,69320,999,119,.24095813E-3,.9002E-4,0
GUOWANG TEST OBJECT B,2026-120B,2026-06-18T18:18:13.686624,15.38746697,.00103215,54.9984,20.6431,335.0230,25.0298,0,U,69321,999,293,.29046379E-3,.10917E-3,0
GUOWANG TEST OBJECT C,2026-120C,2026-06-07T21:56:00.773376,15.39284097,.00098504,54.9968,69.4792,309.3319,50.6835,0,U,69322,999,126,.41735581E-3,.16153E-3,0
GUOWANG TEST OBJECT D,2026-120D,2026-06-17T23:29:30.192288,15.39049885,.00117566,54.9980,24.1234,346.0651,14.0051,0,U,69323,999,281,.45962169E-4,.141E-4,0
QIANFAN-163,2026-121A,2026-06-18T22:02:18.242880,13.59758413,.0020272,89.0151,300.3404,183.9154,176.1846,0,U,69325,999,239,.18348172E-4,.26E-6,0
QIANFAN-164,2026-121B,2026-06-11T09:53:52.001952,13.60355109,.0019383,89.0157,301.0998,205.3125,154.7084,0,U,69326,999,137,.13228E-3,.112E-5,0
SZ-22 MODULE,2025-272C,2026-06-18T20:09:39.558816,15.60272546,.00062378,41.4807,312.0598,101.4652,258.6888,0,U,69328,999,358,.21532481E-3,.17812E-3,0
STARLINK-37733,2026-122A,2026-06-18T04:13:56.398944,15.80450219,.00014071,97.2827,198.6747,137.8378,222.2998,0,U,69329,999,231,-.23398453E-2,-.420355E-2,0
STARLINK-37772,2026-122B,2026-06-18T22:00:01.999584,15.76588184,.00016726,97.2844,199.4679,88.8945,182.6785,0,U,69330,999,357,-.14707018E-1,-.2014369E-1,0
STARLINK-37768,2026-122C,2026-06-18T22:00:01.999584,15.66229000,.0001956,97.2852,199.4436,88.8156,126.6343,0,U,69331,999,357,-.27837358E-1,-.2500224E-1,0
STARLINK-37833,2026-122D,2026-06-18T22:00:01.999584,15.72819492,.00011753,97.2846,199.4669,78.2466,192.8358,0,U,69332,999,358,-.13523981E-1,-.1620735E-1,0
STARLINK-37818,2026-122E,2026-06-18T22:00:01.999584,15.70657102,.00015248,97.2848,199.4587,75.9146,174.2896,0,U,69333,999,363,-.10594535E-1,-.116003E-1,0
STARLINK-37868,2026-122F,2026-06-18T22:00:01.999584,15.74739731,.00013928,97.2842,199.4847,79.0555,232.9840,0,U,69334,999,363,-.20010767E-1,-.2501912E-1,0
STARLINK-37877,2026-122G,2026-06-18T22:00:01.999584,15.62345519,.00017448,97.2855,199.4460,65.0783,150.3406,0,U,69335,999,363,-.26048983E-1,-.2019275E-1,0
STARLINK-37791,2026-122H,2026-06-18T22:00:01.999584,15.70471711,.00015166,97.2843,199.4803,76.3440,224.1682,0,U,69336,999,363,-.68875783E-2,-.768465E-2,0
STARLINK-37765,2026-122J,2026-06-18T20:35:03.565824,15.80802441,.00009312,97.2827,199.4329,74.6327,285.5044,0,U,69337,999,242,.70778224E-3,.137502E-2,0
