STARLINK-37732          
1 69307U 26119M   26169.91668981 -.02499556  00000+0 -28251-1 0  9996
2 69307  97.2847 195.8446 0001369  90.3096 228.1270 15.65863724  4325
STARLINK-37689          
1 69308U 26119N   26169.91668981  .00088369  00000+0  16113-2 0  9994
2 69308  97.2849 195.6037 0000356  71.2638  40.7381 15.49136581  4324
STARLINK-37619          
1 69309U 26119P   26169.91668981 -.00885016  00000+0 -10884-1 0  9999
2 69309  97.2849 195.8378 0001191  96.7012 205.8389 15.62592650  4321
STARLINK-37794          
1 69310U 26119Q   26169.91668981 -.00702233  00000+0 -12201-1 0  9995
2 69310  97.2849 195.7561 0001878  80.9283  28.8625 15.53239016  4323
STARLINK-37795          
1 69311U 26119R   26169.91668981  .00090069  00000+0  16418-2 0  9996
2 69311  97.2849 195.6151 0000373  71.9374  65.4315 15.49138822  4329
STARLINK-37790          
1 69312U 26119S   26169.91668981 -.02421385  00000+0 -38034-1 0  9997
2 69312  97.2854 195.8166 0001857  89.8533 153.2848 15.57281092  4321
STARLINK-37676          
1 69313U 26119T   26169.91668981 -.02519030  00000+0 -27970-1 0  9990
2 69313  97.2840 195.8668 0001348  69.6791 300.8378 15.66331377  4321
STARLINK-37617          
1 69314U 26119U   26169.91668981 -.02390549  00000+0 -35136-1 0  9996
2 69314  97.2854 195.8180 0001891  92.4656 156.8103 15.58987530  4327
STARLINK-37627          
1 69315U 26119V   26169.91668981 -.02444883  00000+0 -38192-1 0  9993
2 69315  97.2856 195.8277 0001771  98.1592 171.6328 15.57466399  4324
STARLINK-37738          
1 69316U 26119W   26169.91668981 -.01100783  00000+0 -15801-1 0  9993
2 69316  97.2850 195.8157 0001626  82.4575 160.2050 15.58708425  4328
STARLINK-37799          
1 69317U 26119X   26169.91668981 -.02533352  00000+0 -24890-1 0  9995
2 69317  97.2844 195.8764 0001433  70.3166 323.8502 15.69333457  4278
STARLINK-37802          
1 69318U 26119Y   26169.91668981 -.02507555  00000+0 -30198-1 0  9990
2 69318  97.2842 195.8604 0001247  76.2639 277.2535 15.64292291  4322
STARLINK-37803          
1 69319U 26119Z   26169.91668981 -.00837314  00000+0 -14837-1 0  9990
2 69319  97.2856 195.7585 0001498  76.0168  29.9445 15.52730359  4273
GUOWANG TEST OBJECT A   
1 69320U 26120A   26158.46264223  .00009002  00000+0  24096-3 0  9996
2 69320  54.9967  71.5399 0009599 294.3963  65.6063 15.38803685  1198
GUOWANG TEST OBJECT B   
1 69321U 26120B   26169.76265841  .00010917  00000+0  29046-3 0  9996
2 69321  54.9984  20.6431 0010321 335.0230  25.0298 15.38746697  2937
GUOWANG TEST OBJECT C   
1 69322U 26120C   26158.91389784  .00016153  00000+0  41736-3 0  9993
2 69322  54.9968  69.4792 0009850 309.3319  50.6835 15.39284097  1266
GUOWANG TEST OBJECT D   
1 69323U 26120D   26168.97882167  .00001410  00000+0  45962-4 0  9990
2 69323  54.9980  24.1234 0011756 346.0651  14.0051 15.39049885  2815
QIANFAN-163             
1 69325U 26121A   26169.91826670  .00000026  00000+0  18348-4 0  9995
2 69325  89.0151 300.3404 0020272 183.9154 176.1846 13.59758413  2392
QIANFAN-164             
1 69326U 26121B   26162.41240743  .00000112  00000+0  13228-3 0  9992
2 69326  89.0157 301.0998 0019383 205.3125 154.7084 13.60355109  1373
SZ-22 MODULE            
1 69328U 25272C   26169.84004119  .00017812  00000+0  21532-3 0  9991
2 69328  41.4807 312.0598 0006237 101.4652 258.6888 15.60272546  3588
STARLINK-37733          
1 69329U 26122A   26169.17634721 -.00420355  00000+0 -23398-2 0  9994
2 69329  97.2827 198.6747 0001407 137.8378 222.2998 15.80450219  2312
STARLINK-37772          
1 69330U 26122B   26169.91668981 -.02014369  00000+0 -14707-1 0  9992
2 69330  97.2844 199.4679 0001672  88.8945 182.6785 15.76588184  3575
STARLINK-37768          
1 69331U 26122C   26169.91668981 -.02500224  00000+0 -27837-1 0  9991
2 69331  97.2852 199.4436 0001956  88.8156 126.6343 15.66229000  3571
STARLINK-37833          
1 69332U 26122D   26169.91668981 -.01620735  00000+0 -13524-1 0  9999
2 69332  97.2846 199.4669 0001175  78.2466 192.8358 15.72819492  3582
STARLINK-37818          
1 69333U 26122E   26169.91668981 -.01160030  00000+0 -10595-1 0  9992
2 69333  97.2848 199.4587 0001524  75.9146 174.2896 15.70657102  3634
STARLINK-37868          
1 69334U 26122F   26169.91668981 -.02501912  00000+0 -20011-1 0  9996
2 69334  97.2842 199.4847 0001392  79.0555 232.9840 15.74739731  3634
STARLINK-37877          
1 69335U 26122G   26169.91668981 -.02019275  00000+0 -26049-1 0  9990
2 69335  97.2855 199.4460 0001744  65.0783 150.3406 15.62345519  3634
STARLINK-37791          
1 69336U 26122H   26169.91668981 -.00768465  00000+0 -68876-2 0  9996
2 69336  97.2843 199.4803 0001516  76.3440 224.1682 15.70471711  3634
STARLINK-37765          
1 69337U 26122J   26169.85768016  .00137502  00000+0  70778-3 0  9995
2 69337  97.2827 199.4329 0000931  74.6327 285.5044 15.80802441  2423
